[{"OBJECT_NAME":"OBJECT B","OBJECT_ID":"2024-203B","EPOCH":"2026-03-09T23:52:52.928256","MEAN_MOTION":15.27506959,"ECCENTRICITY":0.00103904,"INCLINATION":97.4268,"RA_OF_ASC_NODE":139.5887,"ARG_OF_PERICENTER":321.1475,"MEAN_ANOMALY":38.9016,"EPHEMERIS_TYPE":0,"CLASSIFICATION_TYPE":"U","NORAD_CAT_ID":61870,"ELEMENT_SET_NO":999,"REV_AT_EPOCH":7381,"BSTAR":0.00063263842,"MEAN_MOTION_DOT":0.00016997,"MEAN_MOTION_DDOT":0},{"OBJECT_NAME":"STARLINK-36183","OBJECT_ID":"2025-303L","EPOCH":"2026-03-09T00:59:36.332736","MEAN_MOTION":15.27587617,"ECCENTRICITY":0.00017714,"INCLINATION":43.0008,"RA_OF_ASC_NODE":314.5763,"ARG_OF_PERICENTER":267.5782,"MEAN_ANOMALY":92.4867,"EPHEMERIS_TYPE":0,"CLASSIFICATION_TYPE":"U","NORAD_CAT_ID":67173,"ELEMENT_SET_NO":999,"REV_AT_EPOCH":1263,"BSTAR":0.0016612908,"MEAN_MOTION_DOT":0.00045748,"MEAN_MOTION_DDOT":0}]
